{
  "type": "FeatureCollection",
  "features": [
    {
      "type": "Feature",
      "properties": {
        "norad_id": 25590,
        "name": "COSMOS 2361",
        "group": "musson",
        "lat": -18.77124066228904,
        "lon": -29.321734747127593,
        "alt_km": 1003.6743945493254,
        "timestamp": "2025-12-27T14:26:30.791418+00:00",
        "meta_object_name": "COSMOS 2361",
        "meta_object_id": "1998-076A",
        "meta_epoch": "2025-12-27T04:05:37.857120",
        "meta_mean_motion": 13.73219116,
        "meta_eccentricity": 0.00304131,
        "meta_inclination": 82.9347,
        "meta_ra_of_asc_node": 333.4127,
        "meta_arg_of_pericenter": 223.8805,
        "meta_mean_anomaly": 146.6858,
        "meta_ephemeris_type": 0,
        "meta_classification_type": "U",
        "meta_norad_cat_id": 25590,
        "meta_element_set_no": 999,
        "meta_rev_at_epoch": 35309,
        "meta_bstar": 6.9640842e-05,
        "meta_mean_motion_dot": 8e-07,
        "meta_mean_motion_ddot": 0,
        "tle_line1": "1 25590U 98076A   25361.17057705  .00000080  00000+0  69641-4 0  9997",
        "tle_line2": "2 25590  82.9347 333.4127 0030413 223.8805 146.6858 13.73219116353090"
      },
      "geometry": {
        "type": "Point",
        "coordinates": [
          -29.321734747127593,
          -18.77124066228904
        ]
      }
    },
    {
      "type": "Feature",
      "properties": {
        "norad_id": 26818,
        "name": "COSMOS 2378",
        "group": "musson",
        "lat": 75.5789880240522,
        "lon": 139.83588164699685,
        "alt_km": 965.538333755967,
        "timestamp": "2025-12-27T14:26:30.791439+00:00",
        "meta_object_name": "COSMOS 2378",
        "meta_object_id": "2001-023A",
        "meta_epoch": "2025-12-27T05:15:28.941408",
        "meta_mean_motion": 13.74143199,
        "meta_eccentricity": 0.00333176,
        "meta_inclination": 82.9272,
        "meta_ra_of_asc_node": 348.9878,
        "meta_arg_of_pericenter": 164.4002,
        "meta_mean_anomaly": 206.5845,
        "meta_ephemeris_type": 0,
        "meta_classification_type": "U",
        "meta_norad_cat_id": 26818,
        "meta_element_set_no": 999,
        "meta_rev_at_epoch": 23122,
        "meta_bstar": 5.547045e-05,
        "meta_mean_motion_dot": 6.8e-07,
        "meta_mean_motion_ddot": 0,
        "tle_line1": "1 26818U 01023A   25361.21908497  .00000068  00000+0  55470-4 0  9996",
        "tle_line2": "2 26818  82.9272 348.9878 0033317 164.4002 206.5845 13.74143199231220"
      },
      "geometry": {
        "type": "Point",
        "coordinates": [
          139.83588164699685,
          75.5789880240522
        ]
      }
    },
    {
      "type": "Feature",
      "properties": {
        "norad_id": 27436,
        "name": "COSMOS 2389",
        "group": "musson",
        "lat": 3.627862774107046,
        "lon": -63.56709243541889,
        "alt_km": 950.3528246553733,
        "timestamp": "2025-12-27T14:26:30.791452+00:00",
        "meta_object_name": "COSMOS 2389",
        "meta_object_id": "2002-026A",
        "meta_epoch": "2025-12-27T07:59:33.050688",
        "meta_mean_motion": 13.75156231,
        "meta_eccentricity": 0.00469567,
        "meta_inclination": 82.9514,
        "meta_ra_of_asc_node": 296.1823,
        "meta_arg_of_pericenter": 20.8637,
        "meta_mean_anomaly": 93.4735,
        "meta_ephemeris_type": 0,
        "meta_classification_type": "U",
        "meta_norad_cat_id": 27436,
        "meta_element_set_no": 999,
        "meta_rev_at_epoch": 18349,
        "meta_bstar": 6.5448532e-05,
        "meta_mean_motion_dot": 7.8e-07,
        "meta_mean_motion_ddot": 0,
        "tle_line1": "1 27436U 02026A   25361.33302142  .00000078  00000+0  65449-4 0  9993",
        "tle_line2": "2 27436  82.9514 296.1823 0046956  20.8637  93.4735 13.75156231183490"
      },
      "geometry": {
        "type": "Point",
        "coordinates": [
          -63.56709243541889,
          3.627862774107046
        ]
      }
    },
    {
      "type": "Feature",
      "properties": {
        "norad_id": 27818,
        "name": "COSMOS 2398",
        "group": "musson",
        "lat": 10.79026666136796,
        "lon": 80.39517636569107,
        "alt_km": 995.1954686597419,
        "timestamp": "2025-12-27T14:26:30.791464+00:00",
        "meta_object_name": "COSMOS 2398",
        "meta_object_id": "2003-023A",
        "meta_epoch": "2025-12-27T05:25:12.592416",
        "meta_mean_motion": 13.72387353,
        "meta_eccentricity": 0.00326765,
        "meta_inclination": 82.9481,
        "meta_ra_of_asc_node": 262.0239,
        "meta_arg_of_pericenter": 73.2154,
        "meta_mean_anomaly": 39.2775,
        "meta_ephemeris_type": 0,
        "meta_classification_type": "U",
        "meta_norad_cat_id": 27818,
        "meta_element_set_no": 999,
        "meta_rev_at_epoch": 13015,
        "meta_bstar": 6.3402989e-05,
        "meta_mean_motion_dot": 7.4e-07,
        "meta_mean_motion_ddot": 0,
        "tle_line1": "1 27818U 03023A   25361.22584019  .00000074  00000+0  63403-4 0  9992",
        "tle_line2": "2 27818  82.9481 262.0239 0032676  73.2154  39.2775 13.72387353130155"
      },
      "geometry": {
        "type": "Point",
        "coordinates": [
          80.39517636569107,
          10.79026666136796
        ]
      }
    },
    {
      "type": "Feature",
      "properties": {
        "norad_id": 28380,
        "name": "COSMOS 2407",
        "group": "musson",
        "lat": -33.896991720575066,
        "lon": 26.651458615585195,
        "alt_km": 1010.4935220589759,
        "timestamp": "2025-12-27T14:26:30.791476+00:00",
        "meta_object_name": "COSMOS 2407",
        "meta_object_id": "2004-028A",
        "meta_epoch": "2025-12-27T07:15:48.477024",
        "meta_mean_motion": 13.7631525,
        "meta_eccentricity": 0.00395925,
        "meta_inclination": 82.9593,
        "meta_ra_of_asc_node": 202.11,
        "meta_arg_of_pericenter": 14.9644,
        "meta_mean_anomaly": 158.1515,
        "meta_ephemeris_type": 0,
        "meta_classification_type": "U",
        "meta_norad_cat_id": 28380,
        "meta_element_set_no": 999,
        "meta_rev_at_epoch": 7623,
        "meta_bstar": 4.7748254e-05,
        "meta_mean_motion_dot": 6.2e-07,
        "meta_mean_motion_ddot": 0,
        "tle_line1": "1 28380U 04028A   25361.30264441  .00000062  00000+0  47748-4 0  9997",
        "tle_line2": "2 28380  82.9593 202.1100 0039592  14.9644 158.1515 13.76315250 76238"
      },
      "geometry": {
        "type": "Point",
        "coordinates": [
          26.651458615585195,
          -33.896991720575066
        ]
      }
    },
    {
      "type": "Feature",
      "properties": {
        "norad_id": 28521,
        "name": "COSMOS 2414",
        "group": "musson",
        "lat": 16.248236231165176,
        "lon": 175.48851417497528,
        "alt_km": 932.2420749186676,
        "timestamp": "2025-12-27T14:26:30.791487+00:00",
        "meta_object_name": "COSMOS 2414",
        "meta_object_id": "2005-002A",
        "meta_epoch": "2025-12-27T05:42:43.739136",
        "meta_mean_motion": 13.879048,
        "meta_eccentricity": 0.00414502,
        "meta_inclination": 82.949,
        "meta_ra_of_asc_node": 173.6965,
        "meta_arg_of_pericenter": 99.5469,
        "meta_mean_anomaly": 261.0382,
        "meta_ephemeris_type": 0,
        "meta_classification_type": "U",
        "meta_norad_cat_id": 28521,
        "meta_element_set_no": 999,
        "meta_rev_at_epoch": 5996,
        "meta_bstar": 5.8432378e-05,
        "meta_mean_motion_dot": 8.6e-07,
        "meta_mean_motion_ddot": 0,
        "tle_line1": "1 28521U 05002A   25361.23800624  .00000086  00000+0  58432-4 0  9996",
        "tle_line2": "2 28521  82.9490 173.6965 0041450  99.5469 261.0382 13.87904800 59966"
      },
      "geometry": {
        "type": "Point",
        "coordinates": [
          175.48851417497528,
          16.248236231165176
        ]
      }
    },
    {
      "type": "Feature",
      "properties": {
        "norad_id": 32052,
        "name": "COSMOS 2429",
        "group": "musson",
        "lat": -9.41313862375905,
        "lon": 153.52264186983606,
        "alt_km": 1012.7391395460409,
        "timestamp": "2025-12-27T14:26:30.791547+00:00",
        "meta_object_name": "COSMOS 2429",
        "meta_object_id": "2007-038A",
        "meta_epoch": "2025-12-27T06:32:18.000384",
        "meta_mean_motion": 13.75150856,
        "meta_eccentricity": 0.00383593,
        "meta_inclination": 82.981,
        "meta_ra_of_asc_node": 332.595,
        "meta_arg_of_pericenter": 357.7669,
        "meta_mean_anomaly": 2.331,
        "meta_ephemeris_type": 0,
        "meta_classification_type": "U",
        "meta_norad_cat_id": 32052,
        "meta_element_set_no": 999,
        "meta_rev_at_epoch": 91802,
        "meta_bstar": 6.6146117e-05,
        "meta_mean_motion_dot": 7.9e-07,
        "meta_mean_motion_ddot": 0,
        "tle_line1": "1 32052U 07038A   25361.27243056  .00000079  00000+0  66146-4 0  9998",
        "tle_line2": "2 32052  82.9810 332.5950 0038359 357.7669   2.3310 13.75150856918020"
      },
      "geometry": {
        "type": "Point",
        "coordinates": [
          153.52264186983606,
          -9.41313862375905
        ]
      }
    },
    {
      "type": "Feature",
      "properties": {
        "norad_id": 35635,
        "name": "COSMOS 2454",
        "group": "musson",
        "lat": 4.327430750202714,
        "lon": -23.15739029040566,
        "alt_km": 942.6514507778647,
        "timestamp": "2025-12-27T14:26:30.791563+00:00",
        "meta_object_name": "COSMOS 2454",
        "meta_object_id": "2009-039A",
        "meta_epoch": "2025-12-27T04:04:13.625760",
        "meta_mean_motion": 13.8993039,
        "meta_eccentricity": 0.00198913,
        "meta_inclination": 82.9559,
        "meta_ra_of_asc_node": 157.7063,
        "meta_arg_of_pericenter": 34.8041,
        "meta_mean_anomaly": 139.4805,
        "meta_ephemeris_type": 0,
        "meta_classification_type": "U",
        "meta_norad_cat_id": 35635,
        "meta_element_set_no": 999,
        "meta_rev_at_epoch": 83350,
        "meta_bstar": 5.8932066e-05,
        "meta_mean_motion_dot": 8.9e-07,
        "meta_mean_motion_ddot": 0,
        "tle_line1": "1 35635U 09039A   25361.16960215  .00000089  00000+0  58932-4 0  9997",
        "tle_line2": "2 35635  82.9559 157.7063 0019891  34.8041 139.4805 13.89930390833503"
      },
      "geometry": {
        "type": "Point",
        "coordinates": [
          -23.15739029040566,
          4.327430750202714
        ]
      }
    },
    {
      "type": "Feature",
      "properties": {
        "norad_id": 36519,
        "name": "COSMOS 2463",
        "group": "musson",
        "lat": -40.45096375369674,
        "lon": 9.742869383758412,
        "alt_km": 992.9571114553828,
        "timestamp": "2025-12-27T14:26:30.791574+00:00",
        "meta_object_name": "COSMOS 2463",
        "meta_object_id": "2010-017A",
        "meta_epoch": "2025-12-27T04:29:02.150880",
        "meta_mean_motion": 13.71650374,
        "meta_eccentricity": 0.00348574,
        "meta_inclination": 82.9602,
        "meta_ra_of_asc_node": 16.0951,
        "meta_arg_of_pericenter": 246.474,
        "meta_mean_anomaly": 184.7384,
        "meta_ephemeris_type": 0,
        "meta_classification_type": "U",
        "meta_norad_cat_id": 36519,
        "meta_element_set_no": 999,
        "meta_rev_at_epoch": 78435,
        "meta_bstar": 3.7871441e-05,
        "meta_mean_motion_dot": 4.9e-07,
        "meta_mean_motion_ddot": 0,
        "tle_line1": "1 36519U 10017A   25361.18683045  .00000049  00000+0  37871-4 0  9997",
        "tle_line2": "2 36519  82.9602  16.0951 0034857 246.4740 184.7384 13.71650374784358"
      },
      "geometry": {
        "type": "Point",
        "coordinates": [
          9.742869383758412,
          -40.45096375369674
        ]
      }
    }
  ]
}